KUIPER-00053            
1 64513U 25134P   25209.12537605  .00030185  00000+0  84060-3 0  9998
2 64513  51.8777 163.6048 0001582 215.5448 144.5434 15.36546432  6111
KUIPER-00054            
1 64514U 25134Q   25209.12976038  .00043158  00000+0  12016-2 0  9991
2 64514  51.8762 163.6333 0002742 209.1047 150.9787 15.36379576  6515
KUIPER-00055            
1 64515U 25134R   25209.11539672  .00029365  00000+0  80602-3 0  9991
2 64515  51.8779 163.5418 0000645 129.5855 230.5189 15.37010786  6426
KUIPER-00056            
1 64516U 25134S   25208.61432259  .00025547  00000+0  72403-3 0  9997
2 64516  51.8737 166.1740 0003152 219.9218 140.1537 15.36086393  6497
KUIPER-00057            
1 64517U 25134T   25209.08855242  .00029339  00000+0  85516-3 0  9993
2 64517  51.8697 164.0863 0006846 227.2416 132.7994 15.35114638  6218
KUIPER-00058            
1 64518U 25134U   25208.88231851  .00032406  00000+0  92428-3 0  9994
2 64518  51.8726 164.9672 0004095 229.9772 130.0855 15.35757772  6531
KUIPER-00059            
1 64519U 25134V   25209.18230793  .00018424  00000+0  51181-3 0  9998
2 64519  51.8774 163.2358 0001357 151.9113 208.1947 15.36923522  6111
KUIPER-00060            
1 64520U 25134W   25209.12227158  .00030968  00000+0  85669-3 0  9990
2 64520  51.8771 163.5845 0002120 173.7102 186.3911 15.36739396  6115
